{
"type": "FeatureCollection",
"name": "fortress_mountain_basin_aoi_2",
"crs": { "type": "name", "properties": { "name": "urn:ogc:def:crs:OGC:1.3:CRS84" } },
"features": [
{ "type": "Feature", "properties": { "id": 2 }, "geometry": { "type": "Polygon", "coordinates": [ [ [ -115.245785701960997, 50.808882169226131 ], [ -115.183801947356741, 50.808882169226123 ], [ -115.183801947356741, 50.848048715613736 ], [ -115.245785701960997, 50.848048715613729 ], [ -115.245785701960997, 50.808882169226131 ] ] ] } }
]
}
